1 45179U 20012B   22365.03011815  .00004429  00000-0  31598-3 0  9996
2 45179  53.0552 234.9805 0001463  67.9591 292.1553 15.06406162158642
1 45179U 20012B   22365.36184773  .00006961  00000-0  48564-3 0  9990
2 45179  53.0539 233.4925 0001289  69.5068 290.6059 15.06407963159349
1 45179U 20012B   23001.02532889  .00002660  00000-0  19743-3 0  9995
2 45179  53.0533 230.5142 0001337  68.5459 291.5673 15.06397767158799
1 45179U 20012B   23001.62244827 -.00001504  00000-0 -82092-4 0  9999
2 45179  53.0519 227.8343 0001562  72.0437 288.0722 15.06397143159538
1 45179U 20012B   23001.88783797 -.00001633  00000-0 -90749-4 0  9992
2 45179  53.0524 226.6426 0001647  72.1765 287.9404 15.06397237159575
1 45179U 20012B   23002.41861158 -.00001299  00000-0 -68291-4 0  9995
2 45179  53.0530 224.2596 0001477  71.9388 288.1762 15.06399781159007
1 45179U 20012B   23002.61765372  .00000713  00000-0  66792-4 0  9990
2 45179  53.0528 223.3658 0001462  73.9156 286.1994 15.06397769159685
1 45179U 20012B   23002.88303405 -.00003540  00000-0 -21881-3 0  9996
2 45179  53.0526 222.1744 0001528  71.1709 288.9446 15.06407877159722
1 45179U 20012B   23003.61285825  .00004021  00000-0  28866-3 0  9996
2 45179  53.0526 218.8982 0001537  74.0195 286.0963 15.06398942159836
1 45179U 20012B   23003.61285825  .00004021  00000-0  28866-3 0  9996
2 45179  53.0526 218.8982 0001537  74.0195 286.0963 15.06398942159184
1 45179U 20012B   23003.94459569  .00002225  00000-0  16823-3 0  9994
2 45179  53.0526 217.4090 0001547  73.6909 286.4250 15.06395199159889
1 45179U 20012B   23003.94459569  .00002225  00000-0  16823-3 0  9994
2 45179  53.0526 217.4090 0001547  73.6909 286.4250 15.06395199159238
1 45179U 20012B   23004.87345178  .00001087  00000-0  91895-4 0  9995
2 45179  53.0523 213.2392 0001566  74.3022 285.8140 15.06397811160022
1 45179U 20012B   23005.27153001  .00001649  00000-0  12960-3 0  9991
2 45179  53.0531 211.4520 0001542  71.3212 288.7944 15.06402417159432
1 45179U 20012B   23005.60326341  .00003433  00000-0  24922-3 0  9991
2 45179  53.0528 209.9627 0001473  74.9546 285.1606 15.06402133160130
1 45179U 20012B   23006.59845490  .00004137  00000-0  29633-3 0  9997
2 45179  53.0522 205.4949 0001470  74.8148 285.3003 15.06416008159638
1 45179U 20012B   23006.93018381  .00004714  00000-0  33496-3 0  9999
2 45179  53.0520 204.0056 0001485  74.9808 285.1345 15.06420687160334
1 45179U 20012B   23007.26191213  .00005159  00000-0  36471-3 0  9992
2 45179  53.0520 202.5164 0001483  74.2264 285.8888 15.06425214160389
1 45179U 20012B   23007.79267655  .00005131  00000-0  36282-3 0  9994
2 45179  53.0515 200.1333 0001534  74.7732 285.3426 15.06429883160465
1 45179U 20012B   23007.79267655  .00005131  00000-0  36282-3 0  9994
2 45179  53.0515 200.1333 0001534  74.7732 285.3426 15.06429883159812
1 45179U 20012B   23008.52247401  .00004810  00000-0  34126-3 0  9991
2 45179  53.0519 196.8568 0001551  75.2432 284.8728 15.06436668160572
1 45179U 20012B   23008.92054352  .00005256  00000-0  37104-3 0  9990
2 45179  53.0520 195.0698 0001562  74.6848 285.4313 15.06441923160639
1 45179U 20012B   23008.92054352  .00005256  00000-0  37104-3 0  9990
2 45179  53.0520 195.0698 0001562  74.6848 285.4313 15.06441923159985
1 45179U 20012B   23009.91571229  .00005099  00000-0  36046-3 0  9996
2 45179  53.0522 190.6020 0001594  73.8152 286.3012 15.06452434160786
1 45179U 20012B   23010.18108910  .00005122  00000-0  36196-3 0  9993
2 45179  53.0526 189.4105 0001602  74.6035 285.5130 15.06455803160177
1 45179U 20012B   23010.51280936  .00005202  00000-0  36729-3 0  9990
2 45179  53.0524 187.9211 0001574  74.6610 285.4553 15.06459904160874
1 45179U 20012B   23010.91087205  .00006005  00000-0  42093-3 0  9991
2 45179  53.0527 186.1339 0001586  74.9103 285.2061 15.06467013160931
1 45179U 20012B   23011.17625816 -.00001897  00000-0 -10836-3 0  9992
2 45179  53.0542 184.9408 0001953  73.5642 286.5562 15.06445297160325
1 45179U 20012B   23011.30895018 -.00002127  00000-0 -12378-3 0  9990
2 45179  53.0458 184.3493 0001972  74.5514 285.5693 15.06439100160992
1 45179U 20012B   23011.77341857 -.00030754  00000-0 -20582-2 0  9990
2 45179  53.0530 182.2621 0001539  72.3431 287.7725 15.06335863160414
1 45179U 20012B   23011.90611888 -.00027804  00000-0 -18584-2 0  9990
2 45179  53.0528 181.6664 0001528  73.3533 286.7624 15.06331765161081
1 45179U 20012B   23012.23787287 -.00018936  00000-0 -12588-2 0  9998
2 45179  53.0528 180.1773 0001479  75.2157 284.8996 15.06309838161137
1 45179U 20012B   23012.96774670  .00008794  00000-0  61018-3 0  9992
2 45179  53.0528 176.9014 0001348  76.0146 284.0993 15.06296397160593
1 45179U 20012B   23013.16680289  .00012954  00000-0  88913-3 0  9993
2 45179  53.0526 176.0079 0002981  76.9502 283.1820 15.06307246161273
1 45179U 20012B   23013.16680289  .00012954  00000-0  88913-3 0  9993
2 45179  53.0526 176.0079 0002981  76.9502 283.1820 15.06307246160621
1 45179U 20012B   23013.76393554  .00013677  00000-0  93632-3 0  9992
2 45179  53.0523 173.3272 0001596  68.2526 291.8632 15.06358175161360
1 45179U 20012B   23013.76393554  .00013677  00000-0  93632-3 0  9992
2 45179  53.0523 173.3272 0001596  68.2526 291.8632 15.06358175160718
1 45179U 20012B   23014.42741370  .00019293  00000-0  13110-2 0  9991
2 45179  53.0519 170.3485 0001673  68.8144 291.3024 15.06387595160813
1 45179U 20012B   23015.55530834  .00011321  00000-0  77747-3 0  9998
2 45179  53.0512 165.2863 0001819  65.9805 294.1374 15.06411468160987
1 45179U 20012B   23015.68799964  .00013946  00000-0  95283-3 0  9993
2 45179  53.0513 164.6911 0001670  66.7752 293.3413 15.06418131161654
1 45179U 20012B   23016.55050767  .00007126  00000-0  49668-3 0  9990
2 45179  53.0509 160.8176 0001545  65.2688 294.8462 15.06409476161789
1 45179U 20012B   23016.68320027  .00003925  00000-0  28219-3 0  9995
2 45179  53.0513 160.2216 0001673  76.1968 283.9207 15.06407741161809
1 45179U 20012B   23016.68320027  .00003925  00000-0  28219-3 0  9995
2 45179  53.0513 160.2216 0001673  76.1968 283.9207 15.06407741161157
1 45179U 20012B   23017.08128265  .00001207  00000-0  99937-4 0  9997
2 45179  53.0511 158.4361 0001565  75.2056 284.9107 15.06399789161212
1 45179U 20012B   23017.41301785  .00000925  00000-0  81005-4 0  9997
2 45179  53.0511 156.9465 0001553  77.8397 282.2766 15.06397084161918
1 45179U 20012B   23017.67840374  .00002078  00000-0  15833-3 0  9993
2 45179  53.0511 155.7554 0001550  77.6921 282.4241 15.06401759161951
1 45179U 20012B   23018.40823645  .00018204  00000-0  12388-2 0  9996
2 45179  53.0524 152.4799 0001522  79.4862 280.6298 15.06370236162063
1 45179U 20012B   23018.40823645  .00018204  00000-0  12388-2 0  9996
2 45179  53.0524 152.4799 0001522  79.4862 280.6298 15.06370236161411
1 45179U 20012B   23018.60726127  .00002545  00000-0  18969-3 0  9998
2 45179  53.0510 151.5848 0001288  79.1025 281.0109 15.06400581162096
1 45179U 20012B   23018.60726127  .00002545  00000-0  18969-3 0  9998
2 45179  53.0510 151.5848 0001288  79.1025 281.0109 15.06400581161444
1 45179U 20012B   23019.46977266  .00000547  00000-0  55622-4 0  9993
2 45179  53.0522 147.7127 0001409  90.8927 269.2223 15.06396767162222
1 45179U 20012B   23019.73515627  .00004358  00000-0  31116-3 0  9997
2 45179  53.0521 146.5221 0000854  63.0706 297.0370 15.06411566161612
1 45179U 20012B   23020.06689298  .00001971  00000-0  15118-3 0  9993
2 45179  53.0530 145.0331 0001079  88.3256 271.7857 15.06399853161666
1 45179U 20012B   23020.33228063  .00001213  00000-0  10033-3 0  9992
2 45179  53.0530 143.8408 0001276  95.0856 265.0279 15.06400016162352
1 45179U 20012B   23021.46017620  .00001860  00000-0  14371-3 0  9999
2 45179  53.0532 138.7756 0001302 109.5161 250.5969 15.06400299161877
1 45179U 20012B   23022.58807044  .00001274  00000-0  10438-3 0  9999
2 45179  53.0530 133.7146 0001196  86.8735 273.2390 15.06401980162046
1 45179U 20012B   23023.11885819  .00000196  00000-0  32088-4 0  9993
2 45179  53.0526 131.3321 0001257  88.4600 271.6533 15.06385231162127
1 45179U 20012B   23023.38424168  .00000191  00000-0  31744-4 0  9991
2 45179  53.0514 130.1407 0001384  85.7309 274.3838 15.06390742162168
1 45179U 20012B   23023.58327802  .00002154  00000-0  16347-3 0  9992
2 45179  53.0517 129.2480 0001260  83.4384 276.6748 15.06399210162199
1 45179U 20012B   23024.44579177  .00001540  00000-0  12224-3 0  9990
2 45179  53.0519 125.3762 0001229  79.3232 280.7895 15.06394174162320
1 45179U 20012B   23025.50734644  .00000622  00000-0  60686-4 0  9996
2 45179  53.0520 120.6110 0001120  72.7191 287.3920 15.06391572162486
1 45179U 20012B   23025.57369109  .00001512  00000-0  12039-3 0  9990
2 45179  53.0515 120.3118 0001089  89.5264 270.5850 15.06395141163142
1 45179U 20012B   23026.56889041  .00002359  00000-0  17717-3 0  9990
2 45179  53.0522 115.8438 0001034  84.6544 275.4562 15.06405575163294
1 45179U 20012B   23026.56889041  .00002359  00000-0  17717-3 0  9990
2 45179  53.0522 115.8438 0001034  84.6544 275.4562 15.06405575162642
1 45179U 20012B   23027.49774309  .00003375  00000-0  24533-3 0  9996
2 45179  53.0520 111.6741 0000992  87.3122 272.7980 15.06407768163433
1 45179U 20012B   23027.96217069  .00001867  00000-0  14420-3 0  9991
2 45179  53.0517 109.5900 0001055  85.1096 275.0014 15.06405005162850
1 45179U 20012B   23028.49295130 -.00000317  00000-0 -23833-5 0  9996
2 45179  53.0532 107.2059 0001146  99.6093 260.5026 15.06397146162932
1 45179U 20012B   23028.55929626 -.00000008  00000-0  18335-4 0  9993
2 45179  53.0535 106.9084 0001175  99.5504 260.5618 15.06399235163598
1 45179U 20012B   23028.69198914  .00000000  00000-0  18912-4 0  9998
2 45179  53.0533 106.3126 0001146  98.9406 261.1713 15.06399606163617
1 45179U 20012B   23029.55450205 -.00000653  00000-0 -24975-4 0  9990
2 45179  53.0529 102.4395 0001215  97.6052 262.5075 15.06396124163097
1 45179U 20012B   23029.88623800 -.00000405  00000-0 -83043-5 0  9996
2 45179  53.0531 100.9505 0001175  96.3742 263.7381 15.06393678163794
1 45179U 20012B   23030.48335697  .00001390  00000-0  11220-3 0  9996
2 45179  53.0529  98.2695 0001117  88.5225 271.5892 15.06397123163888
1 45179U 20012B   23030.88144025  .00000591  00000-0  58554-4 0  9997
2 45179  53.0529  96.4820 0001138  86.7674 273.3445 15.06396579163944
1 45179U 20012B   23030.88144025  .00000591  00000-0  58554-4 0  9997
2 45179  53.0529  96.4820 0001138  86.7674 273.3445 15.06396579163292
1 45179U 20012B   23031.54490803  .00001668  00000-0  13085-3 0  9994
2 45179  53.0527  93.5047 0001194  84.1331 275.9794 15.06398797164046
1 45179U 20012B   23031.61125387  .00002054  00000-0  15671-3 0  9997
2 45179  53.0525  93.2064 0001207  85.7305 274.3821 15.06399453164058
